[{"OBJECT_NAME":"STARLINK-1271","OBJECT_ID":"2020-012AR","EPOCH":"2026-03-09T06:10:51.660768","MEAN_MOTION":15.30210928,"ECCENTRICITY":0.00014214,"INCLINATION":53.1602,"RA_OF_ASC_NODE":25.9675,"ARG_OF_PERICENTER":94.3231,"MEAN_ANOMALY":265.7932,"EPHEMERIS_TYPE":0,"CLASSIFICATION_TYPE":"U","NORAD_CAT_ID":45217,"ELEMENT_SET_NO":999,"REV_AT_EPOCH":33509,"BSTAR":0.00014486851,"MEAN_MOTION_DOT":3.935e-5,"MEAN_MOTION_DDOT":0},{"OBJECT_NAME":"SCS-01 M","OBJECT_ID":"2025-100M","EPOCH":"2026-03-09T23:50:15.541152","MEAN_MOTION":15.31880861,"ECCENTRICITY":0.00078021,"INCLINATION":97.3725,"RA_OF_ASC_NODE":145.6908,"ARG_OF_PERICENTER":292.3826,"MEAN_ANOMALY":67.6588,"EPHEMERIS_TYPE":0,"CLASSIFICATION_TYPE":"U","NORAD_CAT_ID":63993,"ELEMENT_SET_NO":999,"REV_AT_EPOCH":4565,"BSTAR":0.0012010051,"MEAN_MOTION_DOT":0.00037061,"MEAN_MOTION_DDOT":0}]
